ELYSIUM STAR 2 & LFF    
1 43760U 18099C   24285.20121375  .00647280  00000+0  11230-1 0  9993
2 43760  97.4983 354.7643 0005931 222.9953 137.0834 15.48470448321023
